start=new Date('2022-12-23T00:00:00.000Z').valueOf();
sats=[{"OBJECT_TYPE":"PAYLOAD","SITE":"AFETR","PERIOD":"95.438","TLE_LINE2":"2 53162  53.2199  30.6121 0002001  40.7016 319.4125 15.08836291 24253","EPOCH":"2022-12-22T12:49:38.155296","MEAN_ANOMALY":"319.4125","TIME_SYSTEM":"UTC","CLASSIFICATION_TYPE":"U","OBJECT_NAME":"STARLINK-4114","ELEMENT_SET_NO":"999","REF_FRAME":"TEME","OBJECT_ID":"2022-083AG","BSTAR":"-0.00005831000000","RCS_SIZE":"LARGE","PERIAPSIS":"538.372","CENTER_NAME":"EARTH","RA_OF_ASC_NODE":"30.6121","EPHEMERIS_TYPE":"0","MEAN_MOTION_DDOT":"0.0000000000000","INCLINATION":"53.2199","GP_ID":"221203063","MEAN_ELEMENT_THEORY":"SGP4","DECAY_DATE":null,"MEAN_MOTION":"15.08836291","TLE_LINE1":"1 53162U 22083AG  22356.53446939 -.00001216  00000-0 -58310-4 0  9996","ARG_OF_PERICENTER":"40.7016","APOAPSIS":"541.141","ECCENTRICITY":"0.00020010","COUNTRY_CODE":"US","NORAD_CAT_ID":"53162","MEAN_MOTION_DOT":"-0.00001216","FILE":"3719197","SEMIMAJOR_AXIS":"6917.892","REV_AT_EPOCH":"2425","LAUNCH_DATE":"2022-07-17"},{"COUNTRY_CODE":"US","ECCENTRICITY":"0.00022090","APOAPSIS":"541.238","ARG_OF_PERICENTER":"48.3882","LAUNCH_DATE":"2022-07-17","REV_AT_EPOCH":"2426","SEMIMAJOR_AXIS":"6917.845","FILE":"3719655","MEAN_MOTION_DOT":"0.00003989","NORAD_CAT_ID":"53163","EPHEMERIS_TYPE":"0","RA_OF_ASC_NODE":"30.4258","CENTER_NAME":"EARTH","PERIAPSIS":"538.182","RCS_SIZE":"LARGE","TLE_LINE1":"1 53163U 22083AH  22356.57958842  .00003989  00000-0  26849-3 0  9990","GP_ID":"221237952","DECAY_DATE":null,"MEAN_ELEMENT_THEORY":"SGP4","MEAN_MOTION":"15.08851537","INCLINATION":"53.2150","MEAN_MOTION_DDOT":"0.0000000000000","CLASSIFICATION_TYPE":"U","OBJECT_NAME":"STARLINK-4104","TIME_SYSTEM":"UTC","MEAN_ANOMALY":"311.7299","EPOCH":"2022-12-22T13:54:36.439488","BSTAR":"0.00026849000000","OBJECT_ID":"2022-083AH","ELEMENT_SET_NO":"999","REF_FRAME":"TEME","SITE":"AFETR","OBJECT_TYPE":"PAYLOAD","TLE_LINE2":"2 53163  53.2150  30.4258 0002209  48.3882 311.7299 15.08851537 24263","PERIOD":"95.437"},{"EPHEMERIS_TYPE":"0","RCS_SIZE":"LARGE","PERIAPSIS":"538.076","CENTER_NAME":"EARTH","RA_OF_ASC_NODE":"30.6674","INCLINATION":"53.2196","GP_ID":"221208799","MEAN_MOTION":"15.08881754","DECAY_DATE":null,"MEAN_ELEMENT_THEORY":"SGP4","TLE_LINE1":"1 53164U 22083AJ  22356.52340965 -.00007600  00000-0 -45935-3 0  9990","MEAN_MOTION_DDOT":"0.0000000000000","ECCENTRICITY":"0.00022290","COUNTRY_CODE":"US","ARG_OF_PERICENTER":"25.5629","APOAPSIS":"541.160","NORAD_CAT_ID":"53164","MEAN_MOTION_DOT":"-0.00007600","FILE":"3719465","SEMIMAJOR_AXIS":"6917.753","REV_AT_EPOCH":"2488","LAUNCH_DATE":"2022-07-17","SITE":"AFETR","OBJECT_TYPE":"PAYLOAD","PERIOD":"95.435","TLE_LINE2":"2 53164  53.2196  30.6674 0002229  25.5629 334.5473 15.08881754 24885","MEAN_ANOMALY":"334.5473","OBJECT_NAME":"STARLINK-4116","CLASSIFICATION_TYPE":"U","TIME_SYSTEM":"UTC","EPOCH":"2022-12-22T12:33:42.593760","BSTAR":"-0.00045935000000","ELEMENT_SET_NO":"999","REF_FRAME":"TEME","OBJECT_ID":"2022-083AJ"},{"REV_AT_EPOCH":"2425","LAUNCH_DATE":"2022-07-17","NORAD_CAT_ID":"53165","MEAN_MOTION_DOT":"0.00001146","FILE":"3719197","SEMIMAJOR_AXIS":"6917.863","ARG_OF_PERICENTER":"32.6977","APOAPSIS":"541.334","COUNTRY_CODE":"US","ECCENTRICITY":"0.00023220","MEAN_MOTION_DDOT":"0.0000000000000","TLE_LINE1":"1 53165U 22083AK  22356.50870264  .00001146  00000-0  90062-4 0  9998","INCLINATION":"53.2177","MEAN_MOTION":"15.08845693","GP_ID":"221202450","DECAY_DATE":null,"MEAN_ELEMENT_THEORY":"SGP4","RA_OF_ASC_NODE":"30.7445","RCS_SIZE":"LARGE","CENTER_NAME":"EARTH","PERIAPSIS":"538.122","EPHEMERIS_TYPE":"0","OBJECT_ID":"2022-083AK","REF_FRAME":"TEME","ELEMENT_SET_NO":"999","BSTAR":"0.00009006200000","EPOCH":"2022-12-22T12:12:31.908096","CLASSIFICATION_TYPE":"U","TIME_SYSTEM":"UTC","OBJECT_NAME":"STARLINK-4090","MEAN_ANOMALY":"327.4159","TLE_LINE2":"2 53165  53.2177  30.7445 0002322  32.6977 327.4159 15.08845693 24256","PERIOD":"95.437","OBJECT_TYPE":"PAYLOAD","SITE":"AFETR"},{"MEAN_ANOMALY":"326.2832","CLASSIFICATION_TYPE":"U","TIME_SYSTEM":"UTC","OBJECT_NAME":"STARLINK-4110","EPOCH":"2022-12-22T12:23:07.975392","BSTAR":"0.00017679000000","REF_FRAME":"TEME","ELEMENT_SET_NO":"999","OBJECT_ID":"2022-083AL","SITE":"AFETR","OBJECT_TYPE":"PAYLOAD","PERIOD":"95.437","TLE_LINE2":"2 53166  53.2183  30.7128 0002295  33.8306 326.2832 15.08843137 24256","ECCENTRICITY":"0.00022950","COUNTRY_CODE":"US","ARG_OF_PERICENTER":"33.8306","APOAPSIS":"541.323","NORAD_CAT_ID":"53166","MEAN_MOTION_DOT":"0.00002527","SEMIMAJOR_AXIS":"6917.871","FILE":"3719197","REV_AT_EPOCH":"2425","LAUNCH_DATE":"2022-07-17","EPHEMERIS_TYPE":"0","RCS_SIZE":"LARGE","CENTER_NAME":"EARTH","PERIAPSIS":"538.148","RA_OF_ASC_NODE":"30.7128","INCLINATION":"53.2183","GP_ID":"221202656","DECAY_DATE":null,"MEAN_MOTION":"15.08843137","MEAN_ELEMENT_THEORY":"SGP4","TLE_LINE1":"1 53166U 22083AL  22356.51606453  .00002527  00000-0  17679-3 0  9993","MEAN_MOTION_DDOT":"0.0000000000000"},{"OBJECT_ID":"2022-083AM","ELEMENT_SET_NO":"999","REF_FRAME":"TEME","BSTAR":"0.00009397400000","EPOCH":"2022-12-22T12:39:45.163584","TIME_SYSTEM":"UTC","CLASSIFICATION_TYPE":"U","OBJECT_NAME":"STARLINK-3683","MEAN_ANOMALY":"308.6138","TLE_LINE2":"2 53167  53.2192  15.6409 0002216  51.5053 308.6138 15.08847387 24456","PERIOD":"95.437","OBJECT_TYPE":"PAYLOAD","SITE":"AFETR","LAUNCH_DATE":"2022-07-17","REV_AT_EPOCH":"2445","FILE":"3719655","SEMIMAJOR_AXIS":"6917.858","MEAN_MOTION_DOT":"0.00001208","NORAD_CAT_ID":"53167","APOAPSIS":"541.256","ARG_OF_PERICENTER":"51.5053","COUNTRY_CODE":"US","ECCENTRICITY":"0.00022160","MEAN_MOTION_DDOT":"0.0000000000000","TLE_LINE1":"1 53167U 22083AM  22356.52760606  .00001208  00000-0  93974-4 0  9994","DECAY_DATE":null,"GP_ID":"221238366","MEAN_MOTION":"15.08847387","MEAN_ELEMENT_THEORY":"SGP4","INCLINATION":"53.2192","RA_OF_ASC_NODE":"15.6409","CENTER_NAME":"EARTH","PERIAPSIS":"538.190","RCS_SIZE":"LARGE","EPHEMERIS_TYPE":"0"},{"SITE":"AFETR","OBJECT_TYPE":"PAYLOAD","PERIOD":"95.438","TLE_LINE2":"2 53168  53.2173  30.7269 0002547  33.5457 326.5696 15.08836819 24886","MEAN_ANOMALY":"326.5696","CLASSIFICATION_TYPE":"U","TIME_SYSTEM":"UTC","OBJECT_NAME":"STARLINK-4105","EPOCH":"2022-12-22T12:17:50.460576","BSTAR":"-0.00012429000000","ELEMENT_SET_NO":"999","REF_FRAME":"TEME","OBJECT_ID":"2022-083AN","EPHEMERIS_TYPE":"0","RCS_SIZE":"LARGE","PERIAPSIS":"537.993","CENTER_NAME":"EARTH","RA_OF_ASC_NODE":"30.7269","INCLINATION":"53.2173","GP_ID":"221208812","MEAN_MOTION":"15.08836819","DECAY_DATE":null,"MEAN_ELEMENT_THEORY":"SGP4","TLE_LINE1":"1 53168U 22083AN  22356.51238959 -.00002266  00000-0 -12429-3 0  9997","MEAN_MOTION_DDOT":"0.0000000000000","ECCENTRICITY":"0.00025470","COUNTRY_CODE":"US","ARG_OF_PERICENTER":"33.5457","APOAPSIS":"541.517","NORAD_CAT_ID":"53168","MEAN_MOTION_DOT":"-0.00002266","FILE":"3719466","SEMIMAJOR_AXIS":"6917.890","REV_AT_EPOCH":"2488","LAUNCH_DATE":"2022-07-17"},{"SITE":"AFETR","OBJECT_TYPE":"PAYLOAD","PERIOD":"95.437","TLE_LINE2":"2 53169  53.2162  15.5607 0002357  38.6979 321.4182 15.08843678 24454","MEAN_ANOMALY":"321.4182","CLASSIFICATION_TYPE":"U","TIME_SYSTEM":"UTC","OBJECT_NAME":"STARLINK-4117","EPOCH":"2022-12-22T13:06:14.505408","BSTAR":"0.00000226500000","ELEMENT_SET_NO":"999","REF_FRAME":"TEME","OBJECT_ID":"2022-083AP","EPHEMERIS_TYPE":"0","RCS_SIZE":"LARGE","CENTER_NAME":"EARTH","PERIAPSIS":"538.104","RA_OF_ASC_NODE":"15.5607","INCLINATION":"53.2162","GP_ID":"221238781","DECAY_DATE":null,"MEAN_ELEMENT_THEORY":"SGP4","MEAN_MOTION":"15.08843678","TLE_LINE1":"1 53169U 22083AP  22356.54600122 -.00000252  00000-0  22650-5 0  9997","MEAN_MOTION_DDOT":"0.0000000000000","ECCENTRICITY":"0.00023570","COUNTRY_CODE":"US","ARG_OF_PERICENTER":"38.6979","APOAPSIS":"541.365","MEAN_MOTION_DOT":"-0.00000252","NORAD_CAT_ID":"53169","FILE":"3719655","SEMIMAJOR_AXIS":"6917.869","REV_AT_EPOCH":"2445","LAUNCH_DATE":"2022-07-17"},{"REV_AT_EPOCH":"2493","LAUNCH_DATE":"2022-07-17","MEAN_MOTION_DOT":"0.00000109","NORAD_CAT_ID":"53170","FILE":"3719468","SEMIMAJOR_AXIS":"6917.858","ARG_OF_PERICENTER":"27.6532","APOAPSIS":"541.542","COUNTRY_CODE":"US","ECCENTRICITY":"0.00026300","MEAN_MOTION_DDOT":"0.0000000000000","TLE_LINE1":"1 53170U 22083AQ  22356.41259430  .00000109  00000-0  24967-4 0  9999","INCLINATION":"53.2189","GP_ID":"221208830","DECAY_DATE":null,"MEAN_ELEMENT_THEORY":"SGP4","MEAN_MOTION":"15.08847367","RA_OF_ASC_NODE":"26.1636","RCS_SIZE":"LARGE","PERIAPSIS":"537.903","CENTER_NAME":"EARTH","EPHEMERIS_TYPE":"0","OBJECT_ID":"2022-083AQ","REF_FRAME":"TEME","ELEMENT_SET_NO":"999","BSTAR":"0.00002496700000","EPOCH":"2022-12-22T09:54:08.147520","CLASSIFICATION_TYPE":"U","OBJECT_NAME":"STARLINK-4095","TIME_SYSTEM":"UTC","MEAN_ANOMALY":"332.4600","TLE_LINE2":"2 53170  53.2189  26.1636 0002630  27.6532 332.4600 15.08847367 24931","PERIOD":"95.437","OBJECT_TYPE":"PAYLOAD","SITE":"AFETR"},{"MEAN_ANOMALY":"276.1596","TIME_SYSTEM":"UTC","CLASSIFICATION_TYPE":"U","OBJECT_NAME":"STARLINK-4052","EPOCH":"2022-12-22T17:09:20.224224","BSTAR":"-0.00015650000000","REF_FRAME":"TEME","ELEMENT_SET_NO":"999","OBJECT_ID":"2022-083AR","SITE":"AFETR","OBJECT_TYPE":"PAYLOAD","PERIOD":"95.438","TLE_LINE2":"2 53171  53.2187 359.5661 0001403  83.9556 276.1596 15.08828299 24693","ECCENTRICITY":"0.00014030","COUNTRY_CODE":"US","ARG_OF_PERICENTER":"83.9556","APOAPSIS":"540.752","MEAN_MOTION_DOT":"-0.00002777","NORAD_CAT_ID":"53171","FILE":"3719655","SEMIMAJOR_AXIS":"6917.916","REV_AT_EPOCH":"2469","LAUNCH_DATE":"2022-07-17","EPHEMERIS_TYPE":"0","RCS_SIZE":"LARGE","CENTER_NAME":"EARTH","PERIAPSIS":"538.811","RA_OF_ASC_NODE":"359.5661","INCLINATION":"53.2187","GP_ID":"221237953","MEAN_ELEMENT_THEORY":"SGP4","DECAY_DATE":null,"MEAN_MOTION":"15.08828299","TLE_LINE1":"1 53171U 22083AR  22356.71481741 -.00002777  00000-0 -15650-3 0  9998","MEAN_MOTION_DDOT":"0.0000000000000"}];
